[{"OBJECT_NAME":"YAOGAN-35 04C","OBJECT_ID":"2022-100E","EPOCH":"2026-03-09T22:54:54.133344","MEAN_MOTION":15.20344073,"ECCENTRICITY":0.00105729,"INCLINATION":34.9966,"RA_OF_ASC_NODE":338.2554,"ARG_OF_PERICENTER":249.1689,"MEAN_ANOMALY":110.7893,"EPHEMERIS_TYPE":0,"CLASSIFICATION_TYPE":"U","NORAD_CAT_ID":53526,"ELEMENT_SET_NO":999,"REV_AT_EPOCH":19784,"BSTAR":0.00040733017,"MEAN_MOTION_DOT":9.062e-5,"MEAN_MOTION_DDOT":0},{"OBJECT_NAME":"YAOGAN-36 04B","OBJECT_ID":"2022-171C","EPOCH":"2026-03-09T12:26:55.012992","MEAN_MOTION":15.22823705,"ECCENTRICITY":0.00071917,"INCLINATION":35.0028,"RA_OF_ASC_NODE":101.7264,"ARG_OF_PERICENTER":352.2921,"MEAN_ANOMALY":7.7682,"EPHEMERIS_TYPE":0,"CLASSIFICATION_TYPE":"U","NORAD_CAT_ID":54748,"ELEMENT_SET_NO":999,"REV_AT_EPOCH":18018,"BSTAR":0.00057723436,"MEAN_MOTION_DOT":0.0001383,"MEAN_MOTION_DDOT":0}]
